[{"OBJECT_NAME":"ONEWEB-0311","OBJECT_ID":"2021-075Y","EPOCH":"2025-10-21T19:23:38.988096","MEAN_MOTION":13.17650421,"ECCENTRICITY":0.0001575,"INCLINATION":87.9114,"RA_OF_ASC_NODE":53.2547,"ARG_OF_PERICENTER":87.7132,"MEAN_ANOMALY":272.418,"EPHEMERIS_TYPE":0,"CLASSIFICATION_TYPE":"U","NORAD_CAT_ID":49097,"ELEMENT_SET_NO":999,"REV_AT_EPOCH":20223,"BSTAR":-0.00012209,"MEAN_MOTION_DOT":-3.5e-7,"MEAN_MOTION_DDOT":0},{"OBJECT_NAME":"ONEWEB-0312","OBJECT_ID":"2021-075Z","EPOCH":"2025-10-21T19:45:30.793248","MEAN_MOTION":13.1764898,"ECCENTRICITY":0.0001838,"INCLINATION":87.9105,"RA_OF_ASC_NODE":53.2808,"ARG_OF_PERICENTER":89.4805,"MEAN_ANOMALY":270.6537,"EPHEMERIS_TYPE":0,"CLASSIFICATION_TYPE":"U","NORAD_CAT_ID":49098,"ELEMENT_SET_NO":999,"REV_AT_EPOCH":20221,"BSTAR":4.2904e-6,"MEAN_MOTION_DOT":1.5e-7,"MEAN_MOTION_DDOT":0},{"OBJECT_NAME":"ONEWEB-0313","OBJECT_ID":"2021-075AA","EPOCH":"2025-10-21T19:52:36.421248","MEAN_MOTION":13.1764854,"ECCENTRICITY":0.0001688,"INCLINATION":87.9102,"RA_OF_ASC_NODE":53.2892,"ARG_OF_PERICENTER":95.5856,"MEAN_ANOMALY":264.5468,"EPHEMERIS_TYPE":0,"CLASSIFICATION_TYPE":"U","NORAD_CAT_ID":49099,"ELEMENT_SET_NO":999,"REV_AT_EPOCH":20220,"BSTAR":4.0568e-5,"MEAN_MOTION_DOT":2.9e-7,"MEAN_MOTION_DDOT":0},{"OBJECT_NAME":"ONEWEB-0314","OBJECT_ID":"2021-075AB","EPOCH":"2025-10-21T19:04:12.111168","MEAN_MOTION":13.17648065,"ECCENTRICITY":0.0001894,"INCLINATION":87.9117,"RA_OF_ASC_NODE":53.2415,"ARG_OF_PERICENTER":88.0204,"MEAN_ANOMALY":272.1144,"EPHEMERIS_TYPE":0,"CLASSIFICATION_TYPE":"U","NORAD_CAT_ID":49100,"ELEMENT_SET_NO":999,"REV_AT_EPOCH":20217,"BSTAR":-3.2747e-5,"MEAN_MOTION_DOT":0,"MEAN_MOTION_DDOT":0},{"OBJECT_NAME":"ONEWEB-0315","OBJECT_ID":"2021-075AC","EPOCH":"2025-10-21T19:34:43.990752","MEAN_MOTION":13.12444438,"ECCENTRICITY":0.0001471,"INCLINATION":87.8962,"RA_OF_ASC_NODE":37.9938,"ARG_OF_PERICENTER":90.5714,"MEAN_ANOMALY":269.5583,"EPHEMERIS_TYPE":0,"CLASSIFICATION_TYPE":"U","NORAD_CAT_ID":49101,"ELEMENT_SET_NO":999,"REV_AT_EPOCH":20390,"BSTAR":0.0012445,"MEAN_MOTION_DOT":4.6e-6,"MEAN_MOTION_DDOT":0},{"OBJECT_NAME":"ONEWEB-0316","OBJECT_ID":"2021-075AD","EPOCH":"2025-10-21T18:07:04.719072","MEAN_MOTION":13.18685399,"ECCENTRICITY":0.0001717,"INCLINATION":87.9229,"RA_OF_ASC_NODE":22.8187,"ARG_OF_PERICENTER":97.7232,"MEAN_ANOMALY":262.4095,"EPHEMERIS_TYPE":0,"CLASSIFICATION_TYPE":"U","NORAD_CAT_ID":49102,"ELEMENT_SET_NO":999,"REV_AT_EPOCH":20578,"BSTAR":0.00015188,"MEAN_MOTION_DOT":7.3e-7,"MEAN_MOTION_DDOT":0},{"OBJECT_NAME":"ONEWEB-0317","OBJECT_ID":"2021-075AE","EPOCH":"2025-10-21T19:25:23.501856","MEAN_MOTION":13.12444788,"ECCENTRICITY":0.0002462,"INCLINATION":87.8964,"RA_OF_ASC_NODE":38.011,"ARG_OF_PERICENTER":111.075,"MEAN_ANOMALY":249.0642,"EPHEMERIS_TYPE":0,"CLASSIFICATION_TYPE":"U","NORAD_CAT_ID":49103,"ELEMENT_SET_NO":999,"REV_AT_EPOCH":20392,"BSTAR":0.0012399,"MEAN_MOTION_DOT":4.59e-6,"MEAN_MOTION_DDOT":0},{"OBJECT_NAME":"ONEWEB-0318","OBJECT_ID":"2021-075AF","EPOCH":"2025-10-21T16:13:03.129024","MEAN_MOTION":13.1868563,"ECCENTRICITY":0.000166,"INCLINATION":87.9231,"RA_OF_ASC_NODE":22.8214,"ARG_OF_PERICENTER":94.6337,"MEAN_ANOMALY":265.4985,"EPHEMERIS_TYPE":0,"CLASSIFICATION_TYPE":"U","NORAD_CAT_ID":49104,"ELEMENT_SET_NO":999,"REV_AT_EPOCH":20573,"BSTAR":0.0001661,"MEAN_MOTION_DOT":7.8e-7,"MEAN_MOTION_DDOT":0},{"OBJECT_NAME":"ONEWEB-0319","OBJECT_ID":"2021-075AG","EPOCH":"2025-10-21T19:26:04.420032","MEAN_MOTION":13.17648993,"ECCENTRICITY":0.0001583,"INCLINATION":87.9109,"RA_OF_ASC_NODE":53.2777,"ARG_OF_PERICENTER":84.5101,"MEAN_ANOMALY":275.6211,"EPHEMERIS_TYPE":0,"CLASSIFICATION_TYPE":"U","NORAD_CAT_ID":49105,"ELEMENT_SET_NO":999,"REV_AT_EPOCH":20221,"BSTAR":-0.00011172,"MEAN_MOTION_DOT":-3.0e-7,"MEAN_MOTION_DDOT":0},{"OBJECT_NAME":"ONEWEB-0323","OBJECT_ID":"2021-075AH","EPOCH":"2025-10-21T19:11:21.641856","MEAN_MOTION":13.12445238,"ECCENTRICITY":0.0001631,"INCLINATION":87.8967,"RA_OF_ASC_NODE":37.9995,"ARG_OF_PERICENTER":76.9238,"MEAN_ANOMALY":283.2072,"EPHEMERIS_TYPE":0,"CLASSIFICATION_TYPE":"U","NORAD_CAT_ID":49106,"ELEMENT_SET_NO":999,"REV_AT_EPOCH":20328,"BSTAR":-0.00038577,"MEAN_MOTION_DOT":-1.26e-6,"MEAN_MOTION_DDOT":0},{"OBJECT_NAME":"ONEWEB-0329","OBJECT_ID":"2021-075AJ","EPOCH":"2025-10-21T19:38:13.955712","MEAN_MOTION":13.17651155,"ECCENTRICITY":0.0001764,"INCLINATION":87.9105,"RA_OF_ASC_NODE":53.2786,"ARG_OF_PERICENTER":94.863,"MEAN_ANOMALY":265.2703,"EPHEMERIS_TYPE":0,"CLASSIFICATION_TYPE":"U","NORAD_CAT_ID":49107,"ELEMENT_SET_NO":999,"REV_AT_EPOCH":20219,"BSTAR":2.1967e-5,"MEAN_MOTION_DOT":2.1e-7,"MEAN_MOTION_DDOT":0},{"OBJECT_NAME":"ONEWEB-0330","OBJECT_ID":"2021-075AK","EPOCH":"2025-10-21T19:39:24.904800","MEAN_MOTION":13.17647036,"ECCENTRICITY":0.0001926,"INCLINATION":87.9107,"RA_OF_ASC_NODE":53.2834,"ARG_OF_PERICENTER":95.3592,"MEAN_ANOMALY":264.776,"EPHEMERIS_TYPE":0,"CLASSIFICATION_TYPE":"U","NORAD_CAT_ID":49108,"ELEMENT_SET_NO":999,"REV_AT_EPOCH":20223,"BSTAR":-1.1695e-5,"MEAN_MOTION_DOT":8.0e-8,"MEAN_MOTION_DDOT":0},{"OBJECT_NAME":"ONEWEB-0292","OBJECT_ID":"2021-083A","EPOCH":"2025-10-21T17:30:44.502336","MEAN_MOTION":13.13471302,"ECCENTRICITY":0.0001703,"INCLINATION":87.9035,"RA_OF_ASC_NODE":7.653,"ARG_OF_PERICENTER":96.0461,"MEAN_ANOMALY":264.0862,"EPHEMERIS_TYPE":0,"CLASSIFICATION_TYPE":"U","NORAD_CAT_ID":49186,"ELEMENT_SET_NO":999,"REV_AT_EPOCH":19962,"BSTAR":0.00087148,"MEAN_MOTION_DOT":3.31e-6,"MEAN_MOTION_DDOT":0},{"OBJECT_NAME":"ONEWEB-0303","OBJECT_ID":"2021-083B","EPOCH":"2025-10-21T17:57:33.977088","MEAN_MOTION":13.1868528,"ECCENTRICITY":0.0001704,"INCLINATION":87.9232,"RA_OF_ASC_NODE":22.8077,"ARG_OF_PERICENTER":95.6122,"MEAN_ANOMALY":264.5204,"EPHEMERIS_TYPE":0,"CLASSIFICATION_TYPE":"U","NORAD_CAT_ID":49187,"ELEMENT_SET_NO":999,"REV_AT_EPOCH":19855,"BSTAR":4.5741e-5,"MEAN_MOTION_DOT":3.1e-7,"MEAN_MOTION_DDOT":0},{"OBJECT_NAME":"ONEWEB-0306","OBJECT_ID":"2021-083C","EPOCH":"2025-10-21T19:32:34.718208","MEAN_MOTION":13.18684926,"ECCENTRICITY":0.0001941,"INCLINATION":87.9232,"RA_OF_ASC_NODE":22.7802,"ARG_OF_PERICENTER":105.6437,"MEAN_ANOMALY":254.4909,"EPHEMERIS_TYPE":0,"CLASSIFICATION_TYPE":"U","NORAD_CAT_ID":49188,"ELEMENT_SET_NO":999,"REV_AT_EPOCH":19860,"BSTAR":0.00014694,"MEAN_MOTION_DOT":7.1e-7,"MEAN_MOTION_DDOT":0},{"OBJECT_NAME":"ONEWEB-0307","OBJECT_ID":"2021-083D","EPOCH":"2025-10-21T17:22:13.042848","MEAN_MOTION":13.13469398,"ECCENTRICITY":0.0001825,"INCLINATION":87.9027,"RA_OF_ASC_NODE":7.6481,"ARG_OF_PERICENTER":101.2004,"MEAN_ANOMALY":258.9331,"EPHEMERIS_TYPE":0,"CLASSIFICATION_TYPE":"U","NORAD_CAT_ID":49189,"ELEMENT_SET_NO":999,"REV_AT_EPOCH":19962,"BSTAR":0.00050418,"MEAN_MOTION_DOT":1.97e-6,"MEAN_MOTION_DDOT":0},{"OBJECT_NAME":"ONEWEB-0320","OBJECT_ID":"2021-083E","EPOCH":"2025-10-21T17:52:54.097248","MEAN_MOTION":13.18686145,"ECCENTRICITY":0.0001812,"INCLINATION":87.9235,"RA_OF_ASC_NODE":22.8222,"ARG_OF_PERICENTER":101.1352,"MEAN_ANOMALY":258.9984,"EPHEMERIS_TYPE":0,"CLASSIFICATION_TYPE":"U","NORAD_CAT_ID":49190,"ELEMENT_SET_NO":999,"REV_AT_EPOCH":19855,"BSTAR":-0.000106,"MEAN_MOTION_DOT":-2.9e-7,"MEAN_MOTION_DDOT":0}]
