ONEWEB-0311             
1 49097U 21075Y   25294.80809014 -.00000035  00000+0 -12209-3 0  9992
2 49097  87.9114  53.2547 0001575  87.7132 272.4180 13.17650421202236
ONEWEB-0312             
1 49098U 21075Z   25294.82327307  .00000015  00000+0  42904-5 0  9998
2 49098  87.9105  53.2808 0001838  89.4805 270.6537 13.17648980202216
ONEWEB-0313             
1 49099U 21075AA  25294.82819932  .00000029  00000+0  40568-4 0  9997
2 49099  87.9102  53.2892 0001688  95.5856 264.5468 13.17648540202200
ONEWEB-0314             
1 49100U 21075AB  25294.79458462  .00000000  00000+0 -32747-4 0  9993
2 49100  87.9117  53.2415 0001894  88.0204 272.1144 13.17648065202177
ONEWEB-0315             
1 49101U 21075AC  25294.81578693  .00000460  00000+0  12445-2 0  9996
2 49101  87.8962  37.9938 0001471  90.5714 269.5583 13.12444438203901
ONEWEB-0316             
1 49102U 21075AD  25294.75491573  .00000073  00000+0  15188-3 0  9999
2 49102  87.9229  22.8187 0001717  97.7232 262.4095 13.18685399205782
ONEWEB-0317             
1 49103U 21075AE  25294.80929979  .00000459  00000+0  12399-2 0  9990
2 49103  87.8964  38.0110 0002462 111.0750 249.0642 13.12444788203928
ONEWEB-0318             
1 49104U 21075AF  25294.67573066  .00000078  00000+0  16610-3 0  9996
2 49104  87.9231  22.8214 0001660  94.6337 265.4985 13.18685630205731
ONEWEB-0319             
1 49105U 21075AG  25294.80977338 -.00000030  00000+0 -11172-3 0  9990
2 49105  87.9109  53.2777 0001583  84.5101 275.6211 13.17648993202214
ONEWEB-0323             
1 49106U 21075AH  25294.79955604 -.00000126  00000+0 -38577-3 0  9995
2 49106  87.8967  37.9995 0001631  76.9238 283.2072 13.12445238203287
ONEWEB-0329             
1 49107U 21075AJ  25294.81821708  .00000021  00000+0  21967-4 0  9994
2 49107  87.9105  53.2786 0001764  94.8630 265.2703 13.17651155202196
ONEWEB-0330             
1 49108U 21075AK  25294.81903825  .00000008  00000+0 -11695-4 0  9999
2 49108  87.9107  53.2834 0001926  95.3592 264.7760 13.17647036202231
ONEWEB-0292             
1 49186U 21083A   25294.72968174  .00000331  00000+0  87148-3 0  9995
2 49186  87.9035   7.6530 0001703  96.0461 264.0862 13.13471302199620
ONEWEB-0303             
1 49187U 21083B   25294.74830992  .00000031  00000+0  45741-4 0  9995
2 49187  87.9232  22.8077 0001704  95.6122 264.5204 13.18685280198558
ONEWEB-0306             
1 49188U 21083C   25294.81429072  .00000071  00000+0  14694-3 0  9993
2 49188  87.9232  22.7802 0001941 105.6437 254.4909 13.18684926198600
ONEWEB-0307             
1 49189U 21083D   25294.72376207  .00000197  00000+0  50418-3 0  9998
2 49189  87.9027   7.6481 0001825 101.2004 258.9331 13.13469398199621
ONEWEB-0320             
1 49190U 21083E   25294.74507057 -.00000029  00000+0 -10600-3 0  9996
2 49190  87.9235  22.8222 0001812 101.1352 258.9984 13.18686145198558
